"2002N4" "Sol/Neptune"
{
	Texture	 	"asteroid.jpg"
	Mesh		"asteroid.cms"
	Radius		30

	EllipticalOrbit
	{
	Period		9373.99
	SemiMajorAxis	48387000
	Eccentricity	0.4945
	Inclination	113.569	#
	AscendingNode	351.648	#
	ArgOfPericenter	 77.981	# J2000.0
	MeanAnomaly     216.988	#
	}

	RotationPeriod  10   # Guess

	Albedo 0.155
}

"2003N1" "Sol/Neptune"
{
	Texture	 	"asteroid.jpg"
	Mesh		"asteroid.cms"
	Radius		14

	EllipticalOrbit
	{
	Period		9115.91
	SemiMajorAxis	46695000
	Eccentricity	0.4499
	Inclination	118.763	#
	AscendingNode	288.194	#
	ArgOfPericenter	161.232	# J2000.0
	MeanAnomaly     182.071	#
	}

	RotationPeriod  10   # Guess

	Albedo 0.155
}




